[{"OBJECT_NAME":"SKYSAT-C6","OBJECT_ID":"2017-068F","EPOCH":"2026-03-09T21:33:49.392576","MEAN_MOTION":15.32504544,"ECCENTRICITY":0.00036369,"INCLINATION":97.44,"RA_OF_ASC_NODE":205.7173,"ARG_OF_PERICENTER":127.5085,"MEAN_ANOMALY":232.6488,"EPHEMERIS_TYPE":0,"CLASSIFICATION_TYPE":"U","NORAD_CAT_ID":42992,"ELEMENT_SET_NO":999,"REV_AT_EPOCH":46710,"BSTAR":0.00039699196,"MEAN_MOTION_DOT":0.0001239,"MEAN_MOTION_DDOT":0},{"OBJECT_NAME":"STARLINK-35034","OBJECT_ID":"2025-192AD","EPOCH":"2026-03-09T18:25:22.676448","MEAN_MOTION":15.30190544,"ECCENTRICITY":0.00010947,"INCLINATION":53.1602,"RA_OF_ASC_NODE":232.1633,"ARG_OF_PERICENTER":72.1645,"MEAN_ANOMALY":287.9475,"EPHEMERIS_TYPE":0,"CLASSIFICATION_TYPE":"U","NORAD_CAT_ID":65431,"ELEMENT_SET_NO":999,"REV_AT_EPOCH":2939,"BSTAR":0.00070067144,"MEAN_MOTION_DOT":0.00020444,"MEAN_MOTION_DDOT":0}]
